[{"OBJECT_NAME":"SALSAT","OBJECT_ID":"2020-068K","EPOCH":"2026-03-09T22:26:21.804576","MEAN_MOTION":15.28191989,"ECCENTRICITY":0.00082652,"INCLINATION":97.8859,"RA_OF_ASC_NODE":66.0795,"ARG_OF_PERICENTER":295.8051,"MEAN_ANOMALY":64.2334,"EPHEMERIS_TYPE":0,"CLASSIFICATION_TYPE":"U","NORAD_CAT_ID":46495,"ELEMENT_SET_NO":999,"REV_AT_EPOCH":30019,"BSTAR":0.00040842582,"MEAN_MOTION_DOT":0.00011156,"MEAN_MOTION_DDOT":0},{"OBJECT_NAME":"STARLINK-35555","OBJECT_ID":"2025-259D","EPOCH":"2026-03-09T21:43:03.284832","MEAN_MOTION":15.27594706,"ECCENTRICITY":0.00024707,"INCLINATION":43.0001,"RA_OF_ASC_NODE":273.1798,"ARG_OF_PERICENTER":269.0113,"MEAN_ANOMALY":91.0456,"EPHEMERIS_TYPE":0,"CLASSIFICATION_TYPE":"U","NORAD_CAT_ID":66425,"ELEMENT_SET_NO":999,"REV_AT_EPOCH":1952,"BSTAR":0.00097245524,"MEAN_MOTION_DOT":0.00026607,"MEAN_MOTION_DDOT":0}]
